[{"CCSDS_OMM_VERS":"2.0","COMMENT":"GENERATED VIA SPACE-TRACK.ORG API","CREATION_DATE":"2024-02-17T03:47:55","ORIGINATOR":"18 SPCS","OBJECT_NAME":"NAVSTAR 78 (USA 293)","OBJECT_ID":"2019-056A","CENTER_NAME":"EARTH","REF_FRAME":"TEME","TIME_SYSTEM":"UTC","MEAN_ELEMENT_THEORY":"SGP4","EPOCH":"2024-02-16T20:12:42.643008","MEAN_MOTION":"2.00569494","ECCENTRICITY":"0.00388390","INCLINATION":"55.8403","RA_OF_ASC_NODE":"4.8854","ARG_OF_PERICENTER":"190.4789","MEAN_ANOMALY":"0.6048","EPHEMERIS_TYPE":"0","CLASSIFICATION_TYPE":"U","NORAD_CAT_ID":"44506","ELEMENT_SET_NO":"999","REV_AT_EPOCH":"3299","BSTAR":"0.00000000000000","MEAN_MOTION_DOT":"-0.00000099","MEAN_MOTION_DDOT":"0.0000000000000","SEMIMAJOR_AXIS":"26559.828","PERIOD":"717.956","APOAPSIS":"20284.849","PERIAPSIS":"20078.537","OBJECT_TYPE":"PAYLOAD","RCS_SIZE":"LARGE","COUNTRY_CODE":"US","LAUNCH_DATE":"2019-08-22","SITE":"AFETR","DECAY_DATE":null,"FILE":"4190592","GP_ID":"249440616","TLE_LINE0":"0 NAVSTAR 78 (USA 293)","TLE_LINE1":"1 44506U 19056A   24047.84216022 -.00000099  00000-0  00000-0 0  9991","TLE_LINE2":"2 44506  55.8403   4.8854 0038839 190.4789   0.6048  2.00569494 32994"},{"CCSDS_OMM_VERS":"2.0","COMMENT":"GENERATED VIA SPACE-TRACK.ORG API","CREATION_DATE":"2024-02-17T17:15:21","ORIGINATOR":"18 SPCS","OBJECT_NAME":"NAVSTAR 59 (USA 192)","OBJECT_ID":"2006-052A","CENTER_NAME":"EARTH","REF_FRAME":"TEME","TIME_SYSTEM":"UTC","MEAN_ELEMENT_THEORY":"SGP4","EPOCH":"2024-02-16T20:18:03.937824","MEAN_MOTION":"2.00559665","ECCENTRICITY":"0.00874160","INCLINATION":"55.1879","RA_OF_ASC_NODE":"247.7924","ARG_OF_PERICENTER":"80.9003","MEAN_ANOMALY":"280.1139","EPHEMERIS_TYPE":"0","CLASSIFICATION_TYPE":"U","NORAD_CAT_ID":"29601","ELEMENT_SET_NO":"999","REV_AT_EPOCH":"12633","BSTAR":"0.00000000000000","MEAN_MOTION_DOT":"0.00000066","MEAN_MOTION_DDOT":"0.0000000000000","SEMIMAJOR_AXIS":"26560.696","PERIOD":"717.991","APOAPSIS":"20414.744","PERIAPSIS":"19950.378","OBJECT_TYPE":"PAYLOAD","RCS_SIZE":"LARGE","COUNTRY_CODE":"US","LAUNCH_DATE":"2006-11-17","SITE":"AFETR","DECAY_DATE":null,"FILE":"4191255","GP_ID":"249475599","TLE_LINE0":"0 NAVSTAR 59 (USA 192)","TLE_LINE1":"1 29601U 06052A   24047.84587891  .00000066  00000-0  00000-0 0  9990","TLE_LINE2":"2 29601  55.1879 247.7924 0087416  80.9003 280.1139  2.00559665126333"},{"CCSDS_OMM_VERS":"2.0","COMMENT":"GENERATED VIA SPACE-TRACK.ORG API","CREATION_DATE":"2024-02-17T03:47:55","ORIGINATOR":"18 SPCS","OBJECT_NAME":"NAVSTAR 58 (USA 190)","OBJECT_ID":"2006-042A","CENTER_NAME":"EARTH","REF_FRAME":"TEME","TIME_SYSTEM":"UTC","MEAN_ELEMENT_THEORY":"SGP4","EPOCH":"2024-02-16T22:38:57.057216","MEAN_MOTION":"2.00562157","ECCENTRICITY":"0.01044320","INCLINATION":"54.6806","RA_OF_ASC_NODE":"185.0899","ARG_OF_PERICENTER":"36.8121","MEAN_ANOMALY":"343.1308","EPHEMERIS_TYPE":"0","CLASSIFICATION_TYPE":"U","NORAD_CAT_ID":"29486","ELEMENT_SET_NO":"999","REV_AT_EPOCH":"12732","BSTAR":"0.00000000000000","MEAN_MOTION_DOT":"0.00000031","MEAN_MOTION_DDOT":"0.0000000000000","SEMIMAJOR_AXIS":"26560.476","PERIOD":"717.982","APOAPSIS":"20459.717","PERIAPSIS":"19904.964","OBJECT_TYPE":"PAYLOAD","RCS_SIZE":"LARGE","COUNTRY_CODE":"US","LAUNCH_DATE":"2006-09-25","SITE":"AFETR","DECAY_DATE":null,"FILE":"4190592","GP_ID":"249430798","TLE_LINE0":"0 NAVSTAR 58 (USA 190)","TLE_LINE1":"1 29486U 06042A   24047.94371594  .00000031  00000-0  00000-0 0  9994","TLE_LINE2":"2 29486  54.6806 185.0899 0104432  36.8121 343.1308  2.00562157127320"},{"CCSDS_OMM_VERS":"2.0","COMMENT":"GENERATED VIA SPACE-TRACK.ORG API","CREATION_DATE":"2024-02-17T03:47:55","ORIGINATOR":"18 SPCS","OBJECT_NAME":"NAVSTAR 56 (USA 180)","OBJECT_ID":"2004-045A","CENTER_NAME":"EARTH","REF_FRAME":"TEME","TIME_SYSTEM":"UTC","MEAN_ELEMENT_THEORY":"SGP4","EPOCH":"2024-02-16T23:04:59.049984","MEAN_MOTION":"2.00559228","ECCENTRICITY":"0.01640920","INCLINATION":"55.4411","RA_OF_ASC_NODE":"359.0614","ARG_OF_PERICENTER":"288.6076","MEAN_ANOMALY":"225.4612","EPHEMERIS_TYPE":"0","CLASSIFICATION_TYPE":"U","NORAD_CAT_ID":"28474","ELEMENT_SET_NO":"999","REV_AT_EPOCH":"14135","BSTAR":"0.00000000000000","MEAN_MOTION_DOT":"-0.00000105","MEAN_MOTION_DDOT":"0.0000000000000","SEMIMAJOR_AXIS":"26560.734","PERIOD":"717.992","APOAPSIS":"20618.440","PERIAPSIS":"19746.759","OBJECT_TYPE":"PAYLOAD","RCS_SIZE":"LARGE","COUNTRY_CODE":"US","LAUNCH_DATE":"2004-11-06","SITE":"AFETR","DECAY_DATE":null,"FILE":"4190592","GP_ID":"249430555","TLE_LINE0":"0 NAVSTAR 56 (USA 180)","TLE_LINE1":"1 28474U 04045A   24047.96179456 -.00000105  00000-0  00000-0 0  9999","TLE_LINE2":"2 28474  55.4411 359.0614 0164092 288.6076 225.4612  2.00559228141353"},{"CCSDS_OMM_VERS":"2.0","COMMENT":"GENERATED VIA SPACE-TRACK.ORG API","CREATION_DATE":"2024-02-17T17:15:21","ORIGINATOR":"18 SPCS","OBJECT_NAME":"NAVSTAR 73 (USA 260)","OBJECT_ID":"2015-013A","CENTER_NAME":"EARTH","REF_FRAME":"TEME","TIME_SYSTEM":"UTC","MEAN_ELEMENT_THEORY":"SGP4","EPOCH":"2024-02-16T23:42:21.280320","MEAN_MOTION":"2.00572890","ECCENTRICITY":"0.00871020","INCLINATION":"53.3917","RA_OF_ASC_NODE":"239.4200","ARG_OF_PERICENTER":"29.1484","MEAN_ANOMALY":"331.3476","EPHEMERIS_TYPE":"0","CLASSIFICATION_TYPE":"U","NORAD_CAT_ID":"40534","ELEMENT_SET_NO":"999","REV_AT_EPOCH":"6475","BSTAR":"0.00000000000000","MEAN_MOTION_DOT":"0.00000070","MEAN_MOTION_DDOT":"0.0000000000000","SEMIMAJOR_AXIS":"26559.528","PERIOD":"717.943","APOAPSIS":"20412.732","PERIAPSIS":"19950.054","OBJECT_TYPE":"PAYLOAD","RCS_SIZE":"LARGE","COUNTRY_CODE":"US","LAUNCH_DATE":"2015-03-25","SITE":"AFETR","DECAY_DATE":null,"FILE":"4191255","GP_ID":"249482151","TLE_LINE0":"0 NAVSTAR 73 (USA 260)","TLE_LINE1":"1 40534U 15013A   24047.98774630  .00000070  00000-0  00000-0 0  9994","TLE_LINE2":"2 40534  53.3917 239.4200 0087102  29.1484 331.3476  2.00572890 64754"},{"CCSDS_OMM_VERS":"2.0","COMMENT":"GENERATED VIA SPACE-TRACK.ORG API","CREATION_DATE":"2024-02-14T17:56:59","ORIGINATOR":"18 SPCS","OBJECT_NAME":"NAVSTAR 64 (USA 206)","OBJECT_ID":"2009-043A","CENTER_NAME":"EARTH","REF_FRAME":"TEME","TIME_SYSTEM":"UTC","MEAN_ELEMENT_THEORY":"SGP4","EPOCH":"2024-02-14T14:38:44.172672","MEAN_MOTION":"2.00576931","ECCENTRICITY":"0.00544230","INCLINATION":"55.5712","RA_OF_ASC_NODE":"61.1995","ARG_OF_PERICENTER":"69.6819","MEAN_ANOMALY":"328.7536","EPHEMERIS_TYPE":"0","CLASSIFICATION_TYPE":"U","NORAD_CAT_ID":"35752","ELEMENT_SET_NO":"999","REV_AT_EPOCH":"10624","BSTAR":"0.00000000000000","MEAN_MOTION_DOT":"-0.00000044","MEAN_MOTION_DDOT":"0.0000000000000","SEMIMAJOR_AXIS":"26559.171","PERIOD":"717.929","APOAPSIS":"20325.579","PERIAPSIS":"20036.493","OBJECT_TYPE":"PAYLOAD","RCS_SIZE":"LARGE","COUNTRY_CODE":"US","LAUNCH_DATE":"2009-08-17","SITE":"AFETR","DECAY_DATE":null,"FILE":"4188404","GP_ID":"249241963","TLE_LINE0":"0 NAVSTAR 64 (USA 206)","TLE_LINE1":"1 35752U 09043A   24045.61023348 -.00000044  00000-0  00000-0 0  9999","TLE_LINE2":"2 35752  55.5712  61.1995 0054423  69.6819 328.7536  2.00576931106247"}]